[{"OBJECT_NAME":"WORLDVIEW-2 (WV-2)","OBJECT_ID":"2009-055A","EPOCH":"2026-03-09T22:27:15.689664","MEAN_MOTION":14.37910721,"ECCENTRICITY":0.00050548,"INCLINATION":98.4692,"RA_OF_ASC_NODE":143.7977,"ARG_OF_PERICENTER":144.7175,"MEAN_ANOMALY":215.4347,"EPHEMERIS_TYPE":0,"CLASSIFICATION_TYPE":"U","NORAD_CAT_ID":35946,"ELEMENT_SET_NO":999,"REV_AT_EPOCH":86138,"BSTAR":7.9928144e-5,"MEAN_MOTION_DOT":1.98e-6,"MEAN_MOTION_DDOT":0},{"OBJECT_NAME":"UNKNOWN","OBJECT_ID":"","EPOCH":"2026-03-08T01:23:35.190816","MEAN_MOTION":14.37319918,"ECCENTRICITY":0.00017379,"INCLINATION":86.4021,"RA_OF_ASC_NODE":2.4905,"ARG_OF_PERICENTER":92.7542,"MEAN_ANOMALY":267.3855,"EPHEMERIS_TYPE":0,"CLASSIFICATION_TYPE":"U","NORAD_CAT_ID":270210,"ELEMENT_SET_NO":999,"REV_AT_EPOCH":32605,"BSTAR":0.00030237323,"MEAN_MOTION_DOT":9.21e-6,"MEAN_MOTION_DDOT":0}]
